{
  "norad_id": 58367,
  "name": "STARLINK-30891",
  "history": [
    {
      "epoch": "2026-03-28T16:46:29.705952Z",
      "apogee_km": 487.1920927333331,
      "perigee_km": 483.92456193580165,
      "latitude_deg": 2.1220132597785393e-05,
      "longitude_deg": 165.5900905658787,
      "height_km": 484.7803358211529,
      "semi_major_axis_km": 6863.695327334567,
      "eccentricity": 0.00023803,
      "inclination_deg": 43.0009,
      "raan_deg": 243.3295,
      "arg_perigee_deg": 289.8813,
      "mean_anomaly_deg": 70.1782,
      "mean_motion_rev_day": 15.26742397
    }
  ]
}