{"fetched_at":"2026-03-30T13:17:50Z","count":15418,"tles":[{"name":"STARLINK-30891","line1":"1 58367U 23177S   26087.69895493  .00002672  00000+0  10928-3 0  9994","line2":"2 58367  43.0009 243.3295 0002380 289.8813  70.1782 15.26742397131070","category":"Starlink"}]}